{
  "type": "FeatureCollection",
  "features": [
    {
      "type": "Feature",
      "properties": {
        "norad_id": 30110,
        "name": "FENGYUN 1C DEB",
        "group": "fengyun-1c-debris",
        "lat": 41.84116785411307,
        "lon": 78.34628409843772,
        "alt_km": 862.5007626049428,
        "timestamp": "2025-12-02T15:49:07.463530+00:00",
        "meta_object_name": "FENGYUN 1C DEB",
        "meta_object_id": "1999-025RP",
        "meta_epoch": "2025-12-02T06:46:05.483424",
        "meta_mean_motion": 13.56217989,
        "meta_eccentricity": 0.0268033,
        "meta_inclination": 98.9078,
        "meta_ra_of_asc_node": 86.0773,
        "meta_arg_of_pericenter": 20.0568,
        "meta_mean_anomaly": 341.0871,
        "meta_ephemeris_type": 0,
        "meta_classification_type": "U",
        "meta_norad_cat_id": 30110,
        "meta_element_set_no": 999,
        "meta_rev_at_epoch": 93373,
        "meta_bstar": 0.00028782228,
        "meta_mean_motion_dot": 2.17e-06,
        "meta_mean_motion_ddot": 0,
        "tle_line1": "1 30110U 99025RP  25336.28200791  .00000217  00000+0  28782-3 0  9997",
        "tle_line2": "2 30110  98.9078  86.0773 0268033  20.0568 341.0871 13.56217989933732"
      },
      "geometry": {
        "type": "Point",
        "coordinates": [
          78.34628409843772,
          41.84116785411307
        ]
      }
    },
    {
      "type": "Feature",
      "properties": {
        "norad_id": 30112,
        "name": "FENGYUN 1C DEB",
        "group": "fengyun-1c-debris",
        "lat": -1.9667905179375829,
        "lon": -49.603009737557564,
        "alt_km": 927.7722510943904,
        "timestamp": "2025-12-02T15:49:07.463541+00:00",
        "meta_object_name": "FENGYUN 1C DEB",
        "meta_object_id": "1999-025RR",
        "meta_epoch": "2025-12-02T07:23:08.841408",
        "meta_mean_motion": 14.22179973,
        "meta_eccentricity": 0.02015072,
        "meta_inclination": 99.2807,
        "meta_ra_of_asc_node": 309.7054,
        "meta_arg_of_pericenter": 137.2246,
        "meta_mean_anomaly": 224.4812,
        "meta_ephemeris_type": 0,
        "meta_classification_type": "U",
        "meta_norad_cat_id": 30112,
        "meta_element_set_no": 999,
        "meta_rev_at_epoch": 97434,
        "meta_bstar": 0.00053429512,
        "meta_mean_motion_dot": 1.407e-05,
        "meta_mean_motion_ddot": 0,
        "tle_line1": "1 30112U 99025RR  25336.30774122  .00001407  00000+0  53430-3 0  9996",
        "tle_line2": "2 30112  99.2807 309.7054 0201507 137.2246 224.4812 14.22179973974347"
      },
      "geometry": {
        "type": "Point",
        "coordinates": [
          -49.603009737557564,
          -1.9667905179375829
        ]
      }
    },
    {
      "type": "Feature",
      "properties": {
        "norad_id": 30113,
        "name": "FENGYUN 1C DEB",
        "group": "fengyun-1c-debris",
        "lat": 53.49822171201019,
        "lon": 20.615766606136866,
        "alt_km": 738.7528391928072,
        "timestamp": "2025-12-02T15:49:07.463551+00:00",
        "meta_object_name": "FENGYUN 1C DEB",
        "meta_object_id": "1999-025RS",
        "meta_epoch": "2025-12-02T04:08:51.309312",
        "meta_mean_motion": 14.45102174,
        "meta_eccentricity": 0.00406528,
        "meta_inclination": 99.0381,
        "meta_ra_of_asc_node": 187.6777,
        "meta_arg_of_pericenter": 32.3909,
        "meta_mean_anomaly": 84.1339,
        "meta_ephemeris_type": 0,
        "meta_classification_type": "U",
        "meta_norad_cat_id": 30113,
        "meta_element_set_no": 999,
        "meta_rev_at_epoch": 97756,
        "meta_bstar": 0.0021537208,
        "meta_mean_motion_dot": 7.565e-05,
        "meta_mean_motion_ddot": 0,
        "tle_line1": "1 30113U 99025RS  25336.17281608  .00007565  00000+0  21537-2 0  9997",
        "tle_line2": "2 30113  99.0381 187.6777 0040652  32.3909  84.1339 14.45102174977567"
      },
      "geometry": {
        "type": "Point",
        "coordinates": [
          20.615766606136866,
          53.49822171201019
        ]
      }
    },
    {
      "type": "Feature",
      "properties": {
        "norad_id": 30114,
        "name": "FENGYUN 1C DEB",
        "group": "fengyun-1c-debris",
        "lat": 56.93726161063911,
        "lon": 172.98671988753193,
        "alt_km": 801.7741375558335,
        "timestamp": "2025-12-02T15:49:07.463562+00:00",
        "meta_object_name": "FENGYUN 1C DEB",
        "meta_object_id": "1999-025RT",
        "meta_epoch": "2025-12-02T00:11:46.892832",
        "meta_mean_motion": 14.096408,
        "meta_eccentricity": 0.0081858,
        "meta_inclination": 98.7468,
        "meta_ra_of_asc_node": 338.6741,
        "meta_arg_of_pericenter": 149.8823,
        "meta_mean_anomaly": 271.0308,
        "meta_ephemeris_type": 0,
        "meta_classification_type": "U",
        "meta_norad_cat_id": 30114,
        "meta_element_set_no": 999,
        "meta_rev_at_epoch": 97003,
        "meta_bstar": 0.00022616672,
        "meta_mean_motion_dot": 3.67e-06,
        "meta_mean_motion_ddot": 0,
        "tle_line1": "1 30114U 99025RT  25336.00818163  .00000367  00000+0  22617-3 0  9996",
        "tle_line2": "2 30114  98.7468 338.6741 0081858 149.8823 271.0308 14.09640800970032"
      },
      "geometry": {
        "type": "Point",
        "coordinates": [
          172.98671988753193,
          56.93726161063911
        ]
      }
    },
    {
      "type": "Feature",
      "properties": {
        "norad_id": 30115,
        "name": "FENGYUN 1C DEB",
        "group": "fengyun-1c-debris",
        "lat": -7.6989438332445,
        "lon": -176.96853715607932,
        "alt_km": 836.668765537167,
        "timestamp": "2025-12-02T15:49:07.463572+00:00",
        "meta_object_name": "FENGYUN 1C DEB",
        "meta_object_id": "1999-025RU",
        "meta_epoch": "2025-12-02T01:40:12.537984",
        "meta_mean_motion": 14.19709826,
        "meta_eccentricity": 0.00682717,
        "meta_inclination": 98.624,
        "meta_ra_of_asc_node": 3.6328,
        "meta_arg_of_pericenter": 91.4146,
        "meta_mean_anomaly": 324.1444,
        "meta_ephemeris_type": 0,
        "meta_classification_type": "U",
        "meta_norad_cat_id": 30115,
        "meta_element_set_no": 999,
        "meta_rev_at_epoch": 97177,
        "meta_bstar": 0.0010925575,
        "meta_mean_motion_dot": 2.324e-05,
        "meta_mean_motion_ddot": 0,
        "tle_line1": "1 30115U 99025RU  25336.06958956  .00002324  00000+0  10926-2 0  9992",
        "tle_line2": "2 30115  98.6240   3.6328 0068271  91.4146 324.1444 14.19709826971772"
      },
      "geometry": {
        "type": "Point",
        "coordinates": [
          -176.96853715607932,
          -7.6989438332445
        ]
      }
    },
    {
      "type": "Feature",
      "properties": {
        "norad_id": 30116,
        "name": "FENGYUN 1C DEB",
        "group": "fengyun-1c-debris",
        "lat": 51.45387799189317,
        "lon": -121.0901874475449,
        "alt_km": 795.8674379976565,
        "timestamp": "2025-12-02T15:49:07.463583+00:00",
        "meta_object_name": "FENGYUN 1C DEB",
        "meta_object_id": "1999-025RV",
        "meta_epoch": "2025-12-01T04:14:47.552928",
        "meta_mean_motion": 14.29152719,
        "meta_eccentricity": 0.00207155,
        "meta_inclination": 99.3996,
        "meta_ra_of_asc_node": 45.3134,
        "meta_arg_of_pericenter": 17.1194,
        "meta_mean_anomaly": 48.6501,
        "meta_ephemeris_type": 0,
        "meta_classification_type": "U",
        "meta_norad_cat_id": 30116,
        "meta_element_set_no": 999,
        "meta_rev_at_epoch": 97344,
        "meta_bstar": 0.0015451891,
        "meta_mean_motion_dot": 3.881e-05,
        "meta_mean_motion_ddot": 0,
        "tle_line1": "1 30116U 99025RV  25335.17693927  .00003881  00000+0  15452-2 0  9996",
        "tle_line2": "2 30116  99.3996  45.3134 0020715  17.1194  48.6501 14.29152719973448"
      },
      "geometry": {
        "type": "Point",
        "coordinates": [
          -121.0901874475449,
          51.45387799189317
        ]
      }
    },
    {
      "type": "Feature",
      "properties": {
        "norad_id": 30117,
        "name": "FENGYUN 1C DEB",
        "group": "fengyun-1c-debris",
        "lat": 52.84583687266822,
        "lon": 157.1668011215783,
        "alt_km": 905.8547078024794,
        "timestamp": "2025-12-02T15:49:07.463593+00:00",
        "meta_object_name": "FENGYUN 1C DEB",
        "meta_object_id": "1999-025RW",
        "meta_epoch": "2025-12-01T10:56:17.670912",
        "meta_mean_motion": 14.07148926,
        "meta_eccentricity": 0.01633058,
        "meta_inclination": 98.8031,
        "meta_ra_of_asc_node": 324.1947,
        "meta_arg_of_pericenter": 241.0671,
        "meta_mean_anomaly": 274.3702,
        "meta_ephemeris_type": 0,
        "meta_classification_type": "U",
        "meta_norad_cat_id": 30117,
        "meta_element_set_no": 999,
        "meta_rev_at_epoch": 96830,
        "meta_bstar": 0.00019141385,
        "meta_mean_motion_dot": 3.18e-06,
        "meta_mean_motion_ddot": 0,
        "tle_line1": "1 30117U 99025RW  25335.45576008  .00000318  00000+0  19141-3 0  9990",
        "tle_line2": "2 30117  98.8031 324.1947 0163305 241.0671 274.3702 14.07148926968305"
      },
      "geometry": {
        "type": "Point",
        "coordinates": [
          157.1668011215783,
          52.84583687266822
        ]
      }
    }
  ]
}